{
  "norad_id": 47843,
  "name": "STARLINK-2435",
  "history": [
    {
      "epoch": "2026-03-28T15:13:04.377216",
      "apogee_km": 478.4496465263783,
      "perigee_km": 476.94547642358975,
      "latitude_deg": -40.69097671511672,
      "longitude_deg": 105.17153024021536,
      "semi_major_axis_km": 6855.834561474983,
      "eccentricity": 0.0001097,
      "inclination_deg": 53.1572,
      "raan_deg": 167.2642,
      "arg_perigee_deg": 88.4818,
      "mean_anomaly_deg": 271.6308,
      "mean_motion_rev_day": 15.29368949
    }
  ]
}