{"fetched_at":"2026-03-29T16:36:15Z","count":15609,"tles":[{"name":"STARLINK-2435","line1":"1 47843U 21018BJ  26087.63407844  .00003064  00000+0  11841-3 0  9997","line2":"2 47843  53.1572 167.2642 0001097  88.4818 271.6308 15.29368949279464","category":"Starlink"}]}